{"fetched_at":"2026-07-05T17:36:07.652Z","source":"https://celestrak.org/NORAD/elements/gp.php?GROUP=kuiper&FORMAT=JSON","constellation":"kuiper","records":[{"OBJECT_NAME":"KUIPER-00114","OBJECT_ID":"2025-171V","EPOCH":"2026-07-04T19:44:51.229824","CLASSIFICATION_TYPE":"U","MEAN_MOTION":14.79931085,"ECCENTRICITY":0.00008443,"INCLINATION":51.9004,"RA_OF_ASC_NODE":17.6339,"ARG_OF_PERICENTER":114.981,"MEAN_ANOMALY":245.124,"EPHEMERIS_TYPE":0,"NORAD_CAT_ID":65151,"ELEMENT_SET_NO":999,"REV_AT_EPOCH":4998,"BSTAR":0.00028282576,"MEAN_MOTION_DOT":0.00001935,"MEAN_MOTION_DDOT":0},{"OBJECT_NAME":"KUIPER-00115","OBJECT_ID":"2025-171W","EPOCH":"2026-07-04T21:33:44.782272","CLASSIFICATION_TYPE":"U","MEAN_MOTION":14.79927732,"ECCENTRICITY":0.00007303,"INCLINATION":51.8996,"RA_OF_ASC_NODE":9.7991,"ARG_OF_PERICENTER":93.1795,"MEAN_ANOMALY":266.925,"EPHEMERIS_TYPE":0,"NORAD_CAT_ID":65152,"ELEMENT_SET_NO":999,"REV_AT_EPOCH":5010,"BSTAR":0.00030374456,"MEAN_MOTION_DOT":0.00002095,"MEAN_MOTION_DDOT":0},{"OBJECT_NAME":"KUIPER-00116","OBJECT_ID":"2025-171X","EPOCH":"2026-07-04T17:22:51.964320","CLASSIFICATION_TYPE":"U","MEAN_MOTION":14.79927277,"ECCENTRICITY":0.00007157,"INCLINATION":51.9,"RA_OF_ASC_NODE":15.6039,"ARG_OF_PERICENTER":112.8205,"MEAN_ANOMALY":247.2833,"EPHEMERIS_TYPE":0,"NORAD_CAT_ID":65153,"ELEMENT_SET_NO":999,"REV_AT_EPOCH":5000,"BSTAR":0.00040641125,"MEAN_MOTION_DOT":0.00002878,"MEAN_MOTION_DDOT":0},{"OBJECT_NAME":"KUIPER-00118","OBJECT_ID":"2025-171Y","EPOCH":"2026-07-04T22:10:35.186304","CLASSIFICATION_TYPE":"U","MEAN_MOTION":14.79905939,"ECCENTRICITY":0.00007839,"INCLINATION":51.8999,"RA_OF_ASC_NODE":17.1713,"ARG_OF_PERICENTER":90.9377,"MEAN_ANOMALY":269.1675,"EPHEMERIS_TYPE":0,"NORAD_CAT_ID":65154,"ELEMENT_SET_NO":999,"REV_AT_EPOCH":5000,"BSTAR":0.00079221128,"MEAN_MOTION_DOT":0.00005819,"MEAN_MOTION_DDOT":0},{"OBJECT_NAME":"KUIPER-00119","OBJECT_ID":"2025-171Z","EPOCH":"2026-07-02T12:09:37.126080","CLASSIFICATION_TYPE":"U","MEAN_MOTION":14.79854211,"ECCENTRICITY":0.0000672,"INCLINATION":51.9013,"RA_OF_ASC_NODE":15.457,"ARG_OF_PERICENTER":119.5063,"MEAN_ANOMALY":240.5966,"EPHEMERIS_TYPE":0,"NORAD_CAT_ID":65155,"ELEMENT_SET_NO":999,"REV_AT_EPOCH":4981,"BSTAR":0.00060569,"MEAN_MOTION_DOT":0.00004391,"MEAN_MOTION_DDOT":0},{"OBJECT_NAME":"KUIPER-00120","OBJECT_ID":"2025-217A","EPOCH":"2026-07-04T13:35:58.098624","CLASSIFICATION_TYPE":"U","MEAN_MOTION":14.79935252,"ECCENTRICITY":0.00005188,"INCLINATION":51.8973,"RA_OF_ASC_NODE":256.2283,"ARG_OF_PERICENTER":105.7784,"MEAN_ANOMALY":254.3235,"EPHEMERIS_TYPE":0,"NORAD_CAT_ID":65762,"ELEMENT_SET_NO":999,"REV_AT_EPOCH":4204,"BSTAR":0.00042778427,"MEAN_MOTION_DOT":0.00003042,"MEAN_MOTION_DDOT":0},{"OBJECT_NAME":"KUIPER-00132","OBJECT_ID":"2025-217B","EPOCH":"2026-07-04T23:00:08.574048","CLASSIFICATION_TYPE":"U","MEAN_MOTION":15.43113336,"ECCENTRICITY":0.00075137,"INCLINATION":51.8548,"RA_OF_ASC_NODE":152.6548,"ARG_OF_PERICENTER":33.0376,"MEAN_ANOMALY":327.1081,"EPHEMERIS_TYPE":0,"NORAD_CAT_ID":65763,"ELEMENT_SET_NO":999,"REV_AT_EPOCH":4351,"BSTAR":0.0011540226,"MEAN_MOTION_DOT":0.00051883,"MEAN_MOTION_DDOT":0},{"OBJECT_NAME":"KUIPER-00133","OBJECT_ID":"2025-217C","EPOCH":"2026-07-05T04:59:47.712768","CLASSIFICATION_TYPE":"U","MEAN_MOTION":14.79931592,"ECCENTRICITY":0.00005492,"INCLINATION":51.9008,"RA_OF_ASC_NODE":253.4956,"ARG_OF_PERICENTER":93.9917,"MEAN_ANOMALY":266.1108,"EPHEMERIS_TYPE":0,"NORAD_CAT_ID":65764,"ELEMENT_SET_NO":999,"REV_AT_EPOCH":4214,"BSTAR":0.00020932729,"MEAN_MOTION_DOT":0.00001375,"MEAN_MOTION_DDOT":0},{"OBJECT_NAME":"KUIPER-00139","OBJECT_ID":"2025-217D","EPOCH":"2026-07-04T20:06:48.070368","CLASSIFICATION_TYPE":"U","MEAN_MOTION":14.79938733,"ECCENTRICITY":0.00005713,"INCLINATION":51.8964,"RA_OF_ASC_NODE":222.5954,"ARG_OF_PERICENTER":84.9214,"MEAN_ANOMALY":275.1814,"EPHEMERIS_TYPE":0,"NORAD_CAT_ID":65765,"ELEMENT_SET_NO":999,"REV_AT_EPOCH":4254,"BSTAR":0.00050822931,"MEAN_MOTION_DOT":0.00003656,"MEAN_MOTION_DDOT":0},{"OBJECT_NAME":"KUIPER-00142","OBJECT_ID":"2025-217E","EPOCH":"2026-07-05T04:38:19.552704","CLASSIFICATION_TYPE":"U","MEAN_MOTION":14.79924774,"ECCENTRICITY":0.00005088,"INCLINATION":51.8985,"RA_OF_ASC_NODE":235.9848,"ARG_OF_PERICENTER":94.9924,"MEAN_ANOMALY":265.1096,"EPHEMERIS_TYPE":0,"NORAD_CAT_ID":65766,"ELEMENT_SET_NO":999,"REV_AT_EPOCH":4238,"BSTAR":0.00012924397,"MEAN_MOTION_DOT":0.00000764,"MEAN_MOTION_DDOT":0},{"OBJECT_NAME":"KUIPER-00145","OBJECT_ID":"2025-217F","EPOCH":"2026-07-05T02:57:08.452800","CLASSIFICATION_TYPE":"U","MEAN_MOTION":14.79966224,"ECCENTRICITY":0.00009935,"INCLINATION":51.8944,"RA_OF_ASC_NODE":238.8171,"ARG_OF_PERICENTER":79.3394,"MEAN_ANOMALY":280.768,"EPHEMERIS_TYPE":0,"NORAD_CAT_ID":65767,"ELEMENT_SET_NO":999,"REV_AT_EPOCH":4233,"BSTAR":0.00022232146,"MEAN_MOTION_DOT":0.00001475,"MEAN_MOTION_DDOT":0},{"OBJECT_NAME":"KUIPER-00147","OBJECT_ID":"2025-217G","EPOCH":"2026-07-04T13:06:46.152000","CLASSIFICATION_TYPE":"U","MEAN_MOTION":14.79934196,"ECCENTRICITY":0.00007177,"INCLINATION":51.8957,"RA_OF_ASC_NODE":243.8465,"ARG_OF_PERICENTER":105.7465,"MEAN_ANOMALY":254.3576,"EPHEMERIS_TYPE":0,"NORAD_CAT_ID":65768,"ELEMENT_SET_NO":999,"REV_AT_EPOCH":4221,"BSTAR":0.00048363447,"MEAN_MOTION_DOT":0.00003468,"MEAN_MOTION_DDOT":0},{"OBJECT_NAME":"KUIPER-00148","OBJECT_ID":"2025-217H","EPOCH":"2026-07-04T19:33:31.802688","CLASSIFICATION_TYPE":"U","MEAN_MOTION":14.76120518,"ECCENTRICITY":0.00007735,"INCLINATION":51.9029,"RA_OF_ASC_NODE":224.9573,"ARG_OF_PERICENTER":288.6172,"MEAN_ANOMALY":71.4705,"EPHEMERIS_TYPE":0,"NORAD_CAT_ID":65769,"ELEMENT_SET_NO":999,"REV_AT_EPOCH":4250,"BSTAR":0.00049304358,"MEAN_MOTION_DOT":0.00003223,"MEAN_MOTION_DDOT":0},{"OBJECT_NAME":"KUIPER-00150","OBJECT_ID":"2025-217J","EPOCH":"2026-07-05T05:03:40.687776","CLASSIFICATION_TYPE":"U","MEAN_MOTION":14.79923926,"ECCENTRICITY":0.00009931,"INCLINATION":51.8992,"RA_OF_ASC_NODE":250.938,"ARG_OF_PERICENTER":113.9617,"MEAN_ANOMALY":246.145,"EPHEMERIS_TYPE":0,"NORAD_CAT_ID":65770,"ELEMENT_SET_NO":999,"REV_AT_EPOCH":4217,"BSTAR":0.00087489896,"MEAN_MOTION_DOT":0.00006453,"MEAN_MOTION_DDOT":0},{"OBJECT_NAME":"KUIPER-00151","OBJECT_ID":"2025-217K","EPOCH":"2026-07-05T03:38:04.527456","CLASSIFICATION_TYPE":"U","MEAN_MOTION":14.79940166,"ECCENTRICITY":0.00004793,"INCLINATION":51.8995,"RA_OF_ASC_NODE":243.7022,"ARG_OF_PERICENTER":87.0767,"MEAN_ANOMALY":273.025,"EPHEMERIS_TYPE":0,"NORAD_CAT_ID":65771,"ELEMENT_SET_NO":999,"REV_AT_EPOCH":4227,"BSTAR":0.00067972493,"MEAN_MOTION_DOT":0.00004965,"MEAN_MOTION_DDOT":0},{"OBJECT_NAME":"KUIPER-00152","OBJECT_ID":"2025-217L","EPOCH":"2026-07-04T20:39:53.854272","CLASSIFICATION_TYPE":"U","MEAN_MOTION":14.7993171,"ECCENTRICITY":0.0000474,"INCLINATION":51.8989,"RA_OF_ASC_NODE":232.4706,"ARG_OF_PERICENTER":90.2375,"MEAN_ANOMALY":269.8642,"EPHEMERIS_TYPE":0,"NORAD_CAT_ID":65772,"ELEMENT_SET_NO":999,"REV_AT_EPOCH":4240,"BSTAR":0.0005837749,"MEAN_MOTION_DOT":0.00004232,"MEAN_MOTION_DDOT":0}]}
