KUIPER-00114            
1 65151U 25171V   26185.82281516  .00001935  00000+0  28283-3 0  9992
2 65151  51.9004  17.6339 0000844 114.9810 245.1240 14.79931085 49983
KUIPER-00115            
1 65152U 25171W   26185.89843498  .00002095  00000+0  30374-3 0  9995
2 65152  51.8996   9.7991 0000730  93.1795 266.9250 14.79927732 50105
KUIPER-00116            
1 65153U 25171X   26185.72421255  .00002878  00000+0  40641-3 0  9998
2 65153  51.9000  15.6039 0000715 112.8205 247.2833 14.79927277 50002
KUIPER-00118            
1 65154U 25171Y   26185.92401836  .00005819  00000+0  79221-3 0  9998
2 65154  51.8999  17.1713 0000783  90.9377 269.1675 14.79905939 50004
KUIPER-00119            
1 65155U 25171Z   26183.50667970  .00004391  00000+0  60569-3 0  9993
2 65155  51.9013  15.4570 0000672 119.5063 240.5966 14.79854211 49811
KUIPER-00120            
1 65762U 25217A   26185.56664466  .00003042  00000+0  42778-3 0  9997
2 65762  51.8973 256.2283 0000518 105.7784 254.3235 14.79935252 42046
KUIPER-00132            
1 65763U 25217B   26185.95843257  .00051883  00000+0  11540-2 0  9996
2 65763  51.8548 152.6548 0007513  33.0376 327.1081 15.43113336 43514
KUIPER-00133            
1 65764U 25217C   26186.20819112  .00001375  00000+0  20933-3 0  9997
2 65764  51.9008 253.4956 0000549  93.9917 266.1108 14.79931592 42148
KUIPER-00139            
1 65765U 25217D   26185.83805637  .00003656  00000+0  50823-3 0  9998
2 65765  51.8964 222.5954 0000571  84.9214 275.1814 14.79938733 42541
KUIPER-00142            
1 65766U 25217E   26186.19328186  .00000764  00000+0  12924-3 0  9995
2 65766  51.8985 235.9848 0000508  94.9924 265.1096 14.79924774 42387
KUIPER-00145            
1 65767U 25217F   26186.12301450  .00001475  00000+0  22232-3 0  9997
2 65767  51.8944 238.8171 0000993  79.3394 280.7680 14.79966224 42333
KUIPER-00147            
1 65768U 25217G   26185.54636750  .00003468  00000+0  48363-3 0  9994
2 65768  51.8957 243.8465 0000717 105.7465 254.3576 14.79934196 42218
KUIPER-00148            
1 65769U 25217H   26185.81495142  .00003223  00000+0  49304-3 0  9998
2 65769  51.9029 224.9573 0000773 288.6172  71.4705 14.76120518 42504
KUIPER-00150            
1 65770U 25217J   26186.21088759  .00006453  00000+0  87490-3 0  9993
2 65770  51.8992 250.9380 0000993 113.9617 246.1450 14.79923926 42175
KUIPER-00151            
1 65771U 25217K   26186.15144129  .00004965  00000+0  67972-3 0  9990
2 65771  51.8995 243.7022 0000479  87.0767 273.0250 14.79940166 42271
KUIPER-00152            
1 65772U 25217L   26185.86103998  .00004232  00000+0  58377-3 0  9993
2 65772  51.8989 232.4706 0000474  90.2375 269.8642 14.79931710 42403
